[{"OBJECT_NAME":"ONEWEB-0170","OBJECT_ID":"2021-025AB","EPOCH":"2025-10-12T06:36:16.730496","MEAN_MOTION":13.13471994,"ECCENTRICITY":0.00016216,"INCLINATION":87.9054,"RA_OF_ASC_NODE":9.4871,"ARG_OF_PERICENTER":115.8919,"MEAN_ANOMALY":244.2377,"EPHEMERIS_TYPE":0,"CLASSIFICATION_TYPE":"U","NORAD_CAT_ID":48067,"ELEMENT_SET_NO":999,"REV_AT_EPOCH":22100,"BSTAR":-0.000531264,"MEAN_MOTION_DOT":-1.81e-6,"MEAN_MOTION_DDOT":0},{"OBJECT_NAME":"ONEWEB-0168","OBJECT_ID":"2021-025AC","EPOCH":"2025-10-12T06:14:20.563872","MEAN_MOTION":13.13470833,"ECCENTRICITY":0.00019622,"INCLINATION":87.9058,"RA_OF_ASC_NODE":9.4717,"ARG_OF_PERICENTER":99.7377,"MEAN_ANOMALY":260.3973,"EPHEMERIS_TYPE":0,"CLASSIFICATION_TYPE":"U","NORAD_CAT_ID":48068,"ELEMENT_SET_NO":999,"REV_AT_EPOCH":22101,"BSTAR":-0.00077086411,"MEAN_MOTION_DOT":-2.69e-6,"MEAN_MOTION_DDOT":0},{"OBJECT_NAME":"ONEWEB-0173","OBJECT_ID":"2021-025AD","EPOCH":"2025-10-12T06:02:09.607776","MEAN_MOTION":13.13469884,"ECCENTRICITY":0.00022562,"INCLINATION":87.9058,"RA_OF_ASC_NODE":9.4813,"ARG_OF_PERICENTER":104.5989,"MEAN_ANOMALY":255.5391,"EPHEMERIS_TYPE":0,"CLASSIFICATION_TYPE":"U","NORAD_CAT_ID":48069,"ELEMENT_SET_NO":999,"REV_AT_EPOCH":22125,"BSTAR":-0.00026354546,"MEAN_MOTION_DOT":-8.3e-7,"MEAN_MOTION_DDOT":0},{"OBJECT_NAME":"ONEWEB-0171","OBJECT_ID":"2021-025AE","EPOCH":"2025-10-12T06:55:47.713152","MEAN_MOTION":13.13469391,"ECCENTRICITY":0.00018337,"INCLINATION":87.9041,"RA_OF_ASC_NODE":9.5068,"ARG_OF_PERICENTER":104.1433,"MEAN_ANOMALY":255.99,"EPHEMERIS_TYPE":0,"CLASSIFICATION_TYPE":"U","NORAD_CAT_ID":48070,"ELEMENT_SET_NO":999,"REV_AT_EPOCH":22107,"BSTAR":0.00015098186,"MEAN_MOTION_DOT":6.8e-7,"MEAN_MOTION_DDOT":0},{"OBJECT_NAME":"ONEWEB-0172","OBJECT_ID":"2021-025AF","EPOCH":"2025-10-12T06:26:31.968384","MEAN_MOTION":13.13470935,"ECCENTRICITY":0.00019278,"INCLINATION":87.9055,"RA_OF_ASC_NODE":9.4823,"ARG_OF_PERICENTER":104.8693,"MEAN_ANOMALY":255.265,"EPHEMERIS_TYPE":0,"CLASSIFICATION_TYPE":"U","NORAD_CAT_ID":48071,"ELEMENT_SET_NO":999,"REV_AT_EPOCH":22196,"BSTAR":-0.00097143109,"MEAN_MOTION_DOT":-3.42e-6,"MEAN_MOTION_DDOT":0},{"OBJECT_NAME":"ONEWEB-0174","OBJECT_ID":"2021-025AG","EPOCH":"2025-10-12T05:59:43.046592","MEAN_MOTION":13.13470249,"ECCENTRICITY":0.00019436,"INCLINATION":87.9048,"RA_OF_ASC_NODE":9.4965,"ARG_OF_PERICENTER":97.6535,"MEAN_ANOMALY":262.4815,"EPHEMERIS_TYPE":0,"CLASSIFICATION_TYPE":"U","NORAD_CAT_ID":48072,"ELEMENT_SET_NO":999,"REV_AT_EPOCH":22128,"BSTAR":-9.2423101e-5,"MEAN_MOTION_DOT":-2.1e-7,"MEAN_MOTION_DDOT":0},{"OBJECT_NAME":"ONEWEB-0175","OBJECT_ID":"2021-025AH","EPOCH":"2025-10-12T06:43:35.942304","MEAN_MOTION":13.13469458,"ECCENTRICITY":0.00018298,"INCLINATION":87.9056,"RA_OF_ASC_NODE":9.4559,"ARG_OF_PERICENTER":111.8138,"MEAN_ANOMALY":248.3186,"EPHEMERIS_TYPE":0,"CLASSIFICATION_TYPE":"U","NORAD_CAT_ID":48073,"ELEMENT_SET_NO":999,"REV_AT_EPOCH":22094,"BSTAR":-0.0002905231,"MEAN_MOTION_DOT":-9.3e-7,"MEAN_MOTION_DDOT":0},{"OBJECT_NAME":"ONEWEB-0177","OBJECT_ID":"2021-025AJ","EPOCH":"2025-10-12T07:00:40.308480","MEAN_MOTION":13.1347036,"ECCENTRICITY":0.00020209,"INCLINATION":87.9056,"RA_OF_ASC_NODE":9.4716,"ARG_OF_PERICENTER":98.4956,"MEAN_ANOMALY":261.6402,"EPHEMERIS_TYPE":0,"CLASSIFICATION_TYPE":"U","NORAD_CAT_ID":48074,"ELEMENT_SET_NO":999,"REV_AT_EPOCH":22113,"BSTAR":0.00067370192,"MEAN_MOTION_DOT":2.59e-6,"MEAN_MOTION_DDOT":0},{"OBJECT_NAME":"ONEWEB-0178","OBJECT_ID":"2021-025AK","EPOCH":"2025-10-12T05:37:58.776384","MEAN_MOTION":13.13470425,"ECCENTRICITY":0.00020946,"INCLINATION":87.9056,"RA_OF_ASC_NODE":9.5284,"ARG_OF_PERICENTER":107.545,"MEAN_ANOMALY":252.5909,"EPHEMERIS_TYPE":0,"CLASSIFICATION_TYPE":"U","NORAD_CAT_ID":48075,"ELEMENT_SET_NO":999,"REV_AT_EPOCH":22117,"BSTAR":0.00087962248,"MEAN_MOTION_DOT":3.34e-6,"MEAN_MOTION_DDOT":0},{"OBJECT_NAME":"ONEWEB-0108","OBJECT_ID":"2021-025AL","EPOCH":"2025-10-12T06:28:58.194336","MEAN_MOTION":13.1346993,"ECCENTRICITY":0.0001685,"INCLINATION":87.9052,"RA_OF_ASC_NODE":9.4668,"ARG_OF_PERICENTER":95.5974,"MEAN_ANOMALY":264.5347,"EPHEMERIS_TYPE":0,"CLASSIFICATION_TYPE":"U","NORAD_CAT_ID":48076,"ELEMENT_SET_NO":999,"REV_AT_EPOCH":22110,"BSTAR":-0.00070700683,"MEAN_MOTION_DOT":-2.45e-6,"MEAN_MOTION_DDOT":0},{"OBJECT_NAME":"ONEWEB-0169","OBJECT_ID":"2021-025AM","EPOCH":"2025-10-12T05:25:35.370048","MEAN_MOTION":13.13470896,"ECCENTRICITY":0.00016749,"INCLINATION":87.9051,"RA_OF_ASC_NODE":9.4987,"ARG_OF_PERICENTER":94.7441,"MEAN_ANOMALY":265.3879,"EPHEMERIS_TYPE":0,"CLASSIFICATION_TYPE":"U","NORAD_CAT_ID":48077,"ELEMENT_SET_NO":999,"REV_AT_EPOCH":21975,"BSTAR":0.0010211456,"MEAN_MOTION_DOT":3.86e-6,"MEAN_MOTION_DDOT":0},{"OBJECT_NAME":"ONEWEB-0176","OBJECT_ID":"2021-031A","EPOCH":"2025-10-12T04:29:37.959360","MEAN_MOTION":13.14503941,"ECCENTRICITY":0.0001931,"INCLINATION":87.9045,"RA_OF_ASC_NODE":339.0985,"ARG_OF_PERICENTER":102.5836,"MEAN_ANOMALY":257.5509,"EPHEMERIS_TYPE":0,"CLASSIFICATION_TYPE":"U","NORAD_CAT_ID":48210,"ELEMENT_SET_NO":999,"REV_AT_EPOCH":21573,"BSTAR":-0.00053280488,"MEAN_MOTION_DOT":-1.85e-6,"MEAN_MOTION_DDOT":0},{"OBJECT_NAME":"ONEWEB-0184","OBJECT_ID":"2021-031B","EPOCH":"2025-10-12T05:40:24.834720","MEAN_MOTION":13.1453154,"ECCENTRICITY":0.0002082,"INCLINATION":87.9059,"RA_OF_ASC_NODE":339.0635,"ARG_OF_PERICENTER":122.9082,"MEAN_ANOMALY":237.2248,"EPHEMERIS_TYPE":0,"CLASSIFICATION_TYPE":"U","NORAD_CAT_ID":48211,"ELEMENT_SET_NO":999,"REV_AT_EPOCH":21571,"BSTAR":-0.014585956,"MEAN_MOTION_DOT":-5.394e-5,"MEAN_MOTION_DDOT":0},{"OBJECT_NAME":"ONEWEB-0179","OBJECT_ID":"2021-031C","EPOCH":"2025-10-12T04:58:10.463520","MEAN_MOTION":13.14502105,"ECCENTRICITY":0.00019534,"INCLINATION":87.9044,"RA_OF_ASC_NODE":339.0826,"ARG_OF_PERICENTER":96.0124,"MEAN_ANOMALY":264.1228,"EPHEMERIS_TYPE":0,"CLASSIFICATION_TYPE":"U","NORAD_CAT_ID":48212,"ELEMENT_SET_NO":999,"REV_AT_EPOCH":21575,"BSTAR":0.00019826923,"MEAN_MOTION_DOT":8.6e-7,"MEAN_MOTION_DDOT":0},{"OBJECT_NAME":"ONEWEB-0180","OBJECT_ID":"2021-031D","EPOCH":"2025-10-12T03:55:22.904256","MEAN_MOTION":13.14502702,"ECCENTRICITY":0.00022134,"INCLINATION":87.9061,"RA_OF_ASC_NODE":339.0839,"ARG_OF_PERICENTER":100.3447,"MEAN_ANOMALY":259.7933,"EPHEMERIS_TYPE":0,"CLASSIFICATION_TYPE":"U","NORAD_CAT_ID":48213,"ELEMENT_SET_NO":999,"REV_AT_EPOCH":21563,"BSTAR":4.1703976e-5,"MEAN_MOTION_DOT":2.8e-7,"MEAN_MOTION_DDOT":0},{"OBJECT_NAME":"ONEWEB-0218","OBJECT_ID":"2021-031E","EPOCH":"2025-10-12T04:27:21.071520","MEAN_MOTION":13.14502132,"ECCENTRICITY":0.00024934,"INCLINATION":87.906,"RA_OF_ASC_NODE":339.0807,"ARG_OF_PERICENTER":117.5272,"MEAN_ANOMALY":242.6112,"EPHEMERIS_TYPE":0,"CLASSIFICATION_TYPE":"U","NORAD_CAT_ID":48214,"ELEMENT_SET_NO":999,"REV_AT_EPOCH":21579,"BSTAR":-0.00050497659,"MEAN_MOTION_DOT":-1.74e-6,"MEAN_MOTION_DDOT":0}]
