ONEWEB-0170             
1 48067U 21025AB  25285.27519364 -.00000181  00000+0 -53126-3 0  9995
2 48067  87.9054   9.4871 0001621 115.8919 244.2377 13.13471994221009
ONEWEB-0168             
1 48068U 21025AC  25285.25996023 -.00000269  00000+0 -77086-3 0  9993
2 48068  87.9058   9.4717 0001962  99.7377 260.3973 13.13470833221012
ONEWEB-0173             
1 48069U 21025AD  25285.25150009 -.00000083  00000+0 -26355-3 0  9997
2 48069  87.9058   9.4813 0002256 104.5989 255.5391 13.13469884221251
ONEWEB-0171             
1 48070U 21025AE  25285.28874668  .00000068  00000+0  15098-3 0  9999
2 48070  87.9041   9.5068 0001833 104.1433 255.9900 13.13469391221071
ONEWEB-0172             
1 48071U 21025AF  25285.26842556 -.00000342  00000+0 -97143-3 0  9997
2 48071  87.9055   9.4823 0001927 104.8693 255.2650 13.13470935221963
ONEWEB-0174             
1 48072U 21025AG  25285.24980378 -.00000021  00000+0 -92423-4 0  9992
2 48072  87.9048   9.4965 0001943  97.6535 262.4815 13.13470249221281
ONEWEB-0175             
1 48073U 21025AH  25285.28027711 -.00000093  00000+0 -29052-3 0  9996
2 48073  87.9056   9.4559 0001829 111.8138 248.3186 13.13469458220947
ONEWEB-0177             
1 48074U 21025AJ  25285.29213320  .00000259  00000+0  67370-3 0  9998
2 48074  87.9056   9.4716 0002020  98.4956 261.6402 13.13470360221130
ONEWEB-0178             
1 48075U 21025AK  25285.23470806  .00000334  00000+0  87962-3 0  9990
2 48075  87.9056   9.5284 0002094 107.5450 252.5909 13.13470425221171
ONEWEB-0108             
1 48076U 21025AL  25285.27011799 -.00000245  00000+0 -70701-3 0  9993
2 48076  87.9052   9.4668 0001685  95.5974 264.5347 13.13469930221106
ONEWEB-0169             
1 48077U 21025AM  25285.22610382  .00000386  00000+0  10211-2 0  9995
2 48077  87.9051   9.4987 0001674  94.7441 265.3879 13.13470896219758
ONEWEB-0176             
1 48210U 21031A   25285.18724490 -.00000185  00000+0 -53280-3 0  9995
2 48210  87.9045 339.0985 0001931 102.5836 257.5509 13.14503941215738
ONEWEB-0184             
1 48211U 21031B   25285.23639855 -.00005394  00000+0 -14586-1 0  9993
2 48211  87.9059 339.0635 0002082 122.9082 237.2248 13.14531540215712
ONEWEB-0179             
1 48212U 21031C   25285.20706555  .00000086  00000+0  19827-3 0  9999
2 48212  87.9044 339.0826 0001953  96.0124 264.1228 13.14502105215759
ONEWEB-0180             
1 48213U 21031D   25285.16345954  .00000028  00000+0  41704-4 0  9993
2 48213  87.9061 339.0839 0002213 100.3447 259.7933 13.14502702215633
ONEWEB-0218             
1 48214U 21031E   25285.18566055 -.00000174  00000+0 -50498-3 0  9996
2 48214  87.9060 339.0807 0002493 117.5272 242.6112 13.14502132215798
